{"type": "FeatureCollection", "features": [{"type": "Feature", "geometry": {"type": "MultiPolygon", "coordinates": [[[[86.31988679716927, 23.804967770977267], [86.31910149019441, 23.804964306995636], [86.31909772310347, 23.805686857073916], [86.31988303442223, 23.805690321173405], [86.31988679716927, 23.804967770977267]]], [[[86.31045930849301, 23.805648488182964], [86.30967399897801, 23.805644976120544], [86.30967017960889, 23.806367524705646], [86.31045549346796, 23.80637103688756], [86.31045930849301, 23.805648488182964]]], [[[86.31989055976713, 23.80424522071292], [86.31989808451527, 23.80280011997959], [86.31911279057111, 23.802796656351532], [86.31910902392825, 23.803519206634444], [86.3175384278014, 23.80351226715306], [86.31754597831103, 23.802067166991264], [86.31676068915868, 23.802063691492332], [86.31675690963549, 23.802786241489073], [86.31204515181537, 23.80276530386213], [86.31204134608204, 23.803487853078217], [86.3112560492958, 23.803484349367242], [86.3112484286892, 23.804929447356294], [86.3120337341627, 23.80493295130571], [86.31202992797664, 23.805655500317112], [86.31124461815928, 23.80565199624849], [86.31124080747827, 23.806374545072444], [86.31045549346796, 23.80637103688756], [86.31045167829161, 23.80709358552393], [86.30966636008836, 23.807090073222525], [86.30966254041637, 23.80781262167116], [86.31201850851299, 23.807823146941967], [86.31201470172324, 23.808545695680458], [86.31280002906878, 23.808549196228537], [86.31279242372618, 23.809994293739003], [86.31357775991214, 23.80999779052755], [86.31357396135978, 23.810720339299383], [86.31514464287352, 23.810727321120808], [86.31514843273567, 23.810004772111473], [86.3159337693729, 23.810008256906844], [86.31592998385585, 23.810730806034734], [86.31671532498827, 23.810734286950787], [86.3167191061602, 23.81001173770448], [86.31750444309742, 23.810015214504386], [86.31750821977452, 23.809292665071567], [86.31986421844904, 23.80930307113084], [86.3198566910153, 23.81074817063627], [86.32142737492482, 23.810755088491728], [86.32143113002604, 23.8100325385378], [86.32221646785908, 23.81003599135124], [86.32222771923517, 23.807868340727726], [86.3214423944365, 23.80786488826667], [86.32144614894226, 23.807142338039856], [86.3206608286369, 23.80713888169905], [86.3206570697867, 23.807861431808266], [86.31987174528592, 23.807857971352522], [86.31987550848056, 23.807135421361036], [86.31909018847344, 23.80713195702581], [86.31909772310347, 23.805686857073916], [86.31831241193404, 23.80568338897749], [86.31831995465426, 23.80423828898872], [86.31989055976713, 23.80424522071292]], [[86.31908642093437, 23.807854506899435], [86.3183010967322, 23.80785103844902], [86.31830486861568, 23.80712848869339], [86.31909018847344, 23.80713195702581], [86.31908642093437, 23.807854506899435]], [[86.31830864034964, 23.806405938869553], [86.31752332498569, 23.80640246665807], [86.31752710091418, 23.80567991688415], [86.31831241193404, 23.80568338897749], [86.31830864034964, 23.806405938869553]], [[86.31751954890748, 23.80712501636378], [86.316734229349, 23.807121540036967], [86.31673800977144, 23.806398990449537], [86.31752332498569, 23.80640246665807], [86.31751954890748, 23.80712501636378]], [[86.31595647932375, 23.805672960706698], [86.31596026379033, 23.804950411101228], [86.31753087669296, 23.804957367042004], [86.31752710091418, 23.80567991688415], [86.31595647932375, 23.805672960706698]], [[86.31515601200925, 23.808559673888087], [86.31515980142068, 23.807837124674055], [86.31594512502362, 23.807840609113782], [86.31593755473988, 23.80928570771071], [86.31358155831391, 23.809275241687477], [86.31358535656508, 23.808552692779173], [86.31515601200925, 23.808559673888087]]], [[[86.31988303442223, 23.805690321173405], [86.31987550848056, 23.807135421361036], [86.3206608286369, 23.80713888169905], [86.3206683458902, 23.805693781275973], [86.31988303442223, 23.805690321173405]]], [[[86.32144990329917, 23.806419787744836], [86.32144614894226, 23.807142338039856], [86.32223146939648, 23.807145790383462], [86.3222352194091, 23.806423239970986], [86.32144990329917, 23.806419787744836]]]]}, "properties": {"zone_id": 1, "centroid_latitude": 23.806642166395537, "centroid_longitude": 86.31599177039338, "area_km2": 0.6848000000000001, "pixel_count": 107, "median_velocity_mm_year": -88.51789855957031, "mean_velocity_mm_year": -91.18523406982422, "worst_velocity_mm_year": -152.17262268066406, "median_net_displacement_mm": -403.5412669181824, "worst_net_displacement_mm": -785.606324672699, "median_velocity_std_mm_year": 1.7694485187530518, "median_temporal_coherence": 1.0, "median_num_interferograms": 138.0, "confidence": "very_high"}}, {"type": "Feature", "geometry": {"type": "MultiPolygon", "coordinates": [[[[86.323813334278, 23.80498503093346], [86.32380211075079, 23.807152683079035], [86.32301678999939, 23.807149238729856], [86.32301304418252, 23.80787178919144], [86.32458369452259, 23.80787867412681], [86.32457995724647, 23.80860122475443], [86.3261506168685, 23.808608093934062], [86.32615434545536, 23.80788554307276], [86.32693967114358, 23.807888971549694], [86.32694339523813, 23.80716642050354], [86.32851403836843, 23.80717326523243], [86.32852518370146, 23.80500561098614], [86.33009580135615, 23.805012439029117], [86.33010691930181, 23.80284478347208], [86.32853632770883, 23.80283795612606], [86.328532613187, 23.803560507814282], [86.32696201349627, 23.803553664249723], [86.32696573670498, 23.80283111279436], [86.32775103213316, 23.80283453645842], [86.32775475085099, 23.802111984818353], [86.32539887803925, 23.802101702186842], [86.32540260963889, 23.80137915082848], [86.32383203719012, 23.80137227599338], [86.32382829690432, 23.802094827117802], [86.32225771636267, 23.802087936063703], [86.32225396724208, 23.802810486885434], [86.32146867285091, 23.802807035246545], [86.32146116547675, 23.804252136450486], [86.32303177178173, 23.8042590362014], [86.3230280265589, 23.804981586935828], [86.323813334278, 23.80498503093346]], [[86.32303551685607, 23.803536485398762], [86.32382081588781, 23.803539929162042], [86.32381707515707, 23.804262480081853], [86.32303177178173, 23.8042590362014], [86.32303551685607, 23.803536485398762]], [[86.32382455647023, 23.802817378174026], [86.32539514629165, 23.802824253477006], [86.32539141439608, 23.803546804698964], [86.32382081588781, 23.803539929162042], [86.32382455647023, 23.802817378174026]]], [[[86.3222427189883, 23.80497813894139], [86.32223896927304, 23.805700689490294], [86.32302428118757, 23.805704137602046], [86.3230280265589, 23.804981586935828], [86.3222427189883, 23.80497813894139]]]]}, "properties": {"zone_id": 2, "centroid_latitude": 23.80479812302389, "centroid_longitude": 86.32576473929359, "area_km2": 0.3904, "pixel_count": 61, "median_velocity_mm_year": -91.36128234863281, "mean_velocity_mm_year": -98.47115325927734, "worst_velocity_mm_year": -168.1009063720703, "median_net_displacement_mm": -438.9288127422333, "worst_net_displacement_mm": -809.528112411499, "median_velocity_std_mm_year": 2.0023880004882812, "median_temporal_coherence": 1.0, "median_num_interferograms": 138.0, "confidence": "very_high"}}, {"type": "Feature", "geometry": {"type": "MultiPolygon", "coordinates": [[[[86.35057853946293, 23.792093752717555], [86.35058213008797, 23.79137119673606], [86.34901166990787, 23.791364580809574], [86.34900447115189, 23.792809692254025], [86.34978970985239, 23.79281300243977], [86.3497933049608, 23.79209044663894], [86.35057853946293, 23.792093752717555]]], [[[86.3505713577856, 23.793538864476147], [86.35057494869547, 23.792816308630922], [86.34978970985239, 23.79281300243977], [86.34978611460139, 23.793535558172458], [86.3505713577856, 23.793538864476147]]], [[[86.34976454010084, 23.797870891137595], [86.35054980933543, 23.797874198116528], [86.35055340109987, 23.797151642680156], [86.35133866613475, 23.79715494555113], [86.35134225341476, 23.79643238993421], [86.35055699272188, 23.796429087175643], [86.35056058420145, 23.795706531602985], [86.34820481600353, 23.79569659969366], [86.34821562866091, 23.793528933580898], [86.34900087155977, 23.793532247874044], [86.34900447115189, 23.792809692254025], [86.34743399417934, 23.792803059898766], [86.34743760231062, 23.792080504436363], [86.34665236837986, 23.792077182379927], [86.34664875590765, 23.792799737729254], [86.34586351777922, 23.79279641156516], [86.34585990082263, 23.793518966733124], [86.34507465849654, 23.79351563646109], [86.34506741547025, 23.794960746365877], [86.34428216460508, 23.79495741187215], [86.34427491232084, 23.796402521277344], [86.3466306913974, 23.7964125134537], [86.34662707806548, 23.797135068394137], [86.34741234238645, 23.79713839124215], [86.34740873325339, 23.797860946227523], [86.34819400205963, 23.797864265193095], [86.34819760685055, 23.79714171009477], [86.3489828714576, 23.797145024951973], [86.34897567041729, 23.79859013530611], [86.34976094385162, 23.798593446393266], [86.34976454010084, 23.797870891137595]]], [[[86.34583819607043, 23.797854296309787], [86.34505292769408, 23.797850965357615], [86.34504568294415, 23.799296074444545], [86.34661623720993, 23.799302732806527], [86.3466126233048, 23.800025287474348], [86.34896846880585, 23.80003524538763], [86.3489576653177, 23.802202909998737], [86.34817237031194, 23.8021995943518], [86.34816876452027, 23.802922148973025], [86.34738346531412, 23.80291882921676], [86.34737985503594, 23.803641383656863], [86.3481651585856, 23.80364470352609], [86.34816155250796, 23.804367258010988], [86.35051747704529, 23.804377193976944], [86.35052107009182, 23.803654639153972], [86.35209167847523, 23.80366124292271], [86.35208809411614, 23.804383797970385], [86.35287340286486, 23.80438709397194], [86.35287698288022, 23.80366453881212], [86.35758881228506, 23.803684230218867], [86.35759236609711, 23.802961674320873], [86.35680706518657, 23.80295840252272], [86.35681062320108, 23.802235846667898], [86.35524003049024, 23.80222929130509], [86.35524716346858, 23.800784179837134], [86.35446187601147, 23.80078089638462], [86.35446544663138, 23.800058340660154], [86.35368016365874, 23.8000550533234], [86.35367658869596, 23.800777608936], [86.35210601449039, 23.800771022050444], [86.35210243069976, 23.80149357737074], [86.35053184837658, 23.8014869742761], [86.35054262537923, 23.79931930878481], [86.34897206968297, 23.79931269038094], [86.34897567041729, 23.79859013530611], [86.3458345781096, 23.798576851000696], [86.34583819607043, 23.797854296309787]], [[86.35523646378893, 23.802951846936843], [86.35445116330217, 23.802948563149126], [86.35445473434686, 23.802226007629105], [86.35524003049024, 23.80222929130509], [86.35523646378893, 23.802951846936843]], [[86.35052825575745, 23.802209529303543], [86.34974296046626, 23.802206221649325], [86.34974655742857, 23.80148366673442], [86.35053184837658, 23.8014869742761], [86.35052825575745, 23.802209529303543]]]]}, "properties": {"zone_id": 3, "centroid_latitude": 23.79895454797151, "centroid_longitude": 86.34971737569091, "area_km2": 0.6016, "pixel_count": 94, "median_velocity_mm_year": -88.12555694580078, "mean_velocity_mm_year": -95.04460906982422, "worst_velocity_mm_year": -182.40914916992188, "median_net_displacement_mm": -438.5478049516678, "worst_net_displacement_mm": -941.329300403595, "median_velocity_std_mm_year": 2.688368797302246, "median_temporal_coherence": 1.0, "median_num_interferograms": 138.0, "confidence": "very_high"}}, {"type": "Feature", "geometry": {"type": "MultiPolygon", "coordinates": [[[[86.381981200102, 23.793667840910764], [86.38197778270457, 23.794390401077887], [86.3827630359282, 23.794393543702085], [86.3827664489842, 23.793670983428], [86.381981200102, 23.793667840910764]]], [[[86.38275279594805, 23.796561224115774], [86.38196752969907, 23.796558081170677], [86.38196411175947, 23.79728064106541], [86.38510519493553, 23.797293189300472], [86.3851085955066, 23.796570628978685], [86.38589386229604, 23.796573755942184], [86.38589725839026, 23.795851195445877], [86.38354147145256, 23.795841802888837], [86.38354488043748, 23.795119242644116], [86.3843301382733, 23.795122377385027], [86.38434035139258, 23.792954695922223], [86.38276986190483, 23.79294842308583], [86.3827664489842, 23.793670983428], [86.38355169800177, 23.793674121950385], [86.38354828928722, 23.794396682331296], [86.3827630359282, 23.794393543702085], [86.38275279594805, 23.796561224115774]]]]}, "properties": {"zone_id": 4, "centroid_latitude": 23.795481045518144, "centroid_longitude": 86.38367405262031, "area_km2": 0.096, "pixel_count": 15, "median_velocity_mm_year": -72.25215148925781, "mean_velocity_mm_year": -79.4676284790039, "worst_velocity_mm_year": -119.87820434570312, "median_net_displacement_mm": -321.24829292297363, "worst_net_displacement_mm": -482.78868198394775, "median_velocity_std_mm_year": 1.7189868688583374, "median_temporal_coherence": 1.0, "median_num_interferograms": 138.0, "confidence": "high"}}, {"type": "Feature", "geometry": {"type": "Polygon", "coordinates": [[[86.23827047635291, 23.79519312069062], [86.23827468850793, 23.794470582523534], [86.23670422921998, 23.794462822962785], [86.23670844988983, 23.793740284991472], [86.23749367510926, 23.793744166637005], [86.23750632309275, 23.791576551916727], [86.23829153545763, 23.791580429171905], [86.23829995793031, 23.790135352086146], [86.23672955072836, 23.790127594109943], [86.23673377039395, 23.78940505572866], [86.2390893684278, 23.789416686306435], [86.2390851617819, 23.79013922508363], [86.23987036580034, 23.79014309408738], [86.23986616332766, 23.790865632927964], [86.24300699842681, 23.790881069530897], [86.24301118353912, 23.790158530164867], [86.24379638838921, 23.790162379199842], [86.24378802667897, 23.79160745812564], [86.24535845423719, 23.791615144737577], [86.24535428181423, 23.792337684359648], [86.24456906361185, 23.792333842919945], [86.2445648866828, 23.79305638234295], [86.24299444209392, 23.793048687219102], [86.24299862770421, 23.792326148058017], [86.2422134099993, 23.792322294635802], [86.2422092200484, 23.793044833665725], [86.24142399816904, 23.793040976118043], [86.24141980371118, 23.79376351494835], [86.2390641260496, 23.793751917944814], [86.23905571058863, 23.79519699461101], [86.23827047635291, 23.79519312069062]]]}, "properties": {"zone_id": 5, "centroid_latitude": 23.792114331967795, "centroid_longitude": 86.24033004325793, "area_km2": 0.256, "pixel_count": 40, "median_velocity_mm_year": -80.8338394165039, "mean_velocity_mm_year": -81.85528564453125, "worst_velocity_mm_year": -108.77661895751953, "median_net_displacement_mm": -363.29254508018494, "worst_net_displacement_mm": -481.60073161125183, "median_velocity_std_mm_year": 1.8941025733947754, "median_temporal_coherence": 1.0, "median_num_interferograms": 139.0, "confidence": "very_high"}}, {"type": "Feature", "geometry": {"type": "MultiPolygon", "coordinates": [[[[86.30976943399945, 23.787581239321906], [86.31055463496928, 23.787584748397386], [86.31055082372464, 23.788307298807254], [86.31212123479715, 23.788314305216254], [86.31211743208118, 23.789036855796454], [86.31525827339446, 23.7890508211662], [86.31526205875073, 23.788328270110593], [86.3160472651149, 23.788331751350064], [86.31606238768053, 23.785441545971803], [86.31370682111266, 23.78543109169618], [86.3137106143964, 23.78470854053709], [86.31449579876303, 23.784712029169953], [86.31450337620151, 23.78326692640969], [86.31293302497393, 23.78325994562637], [86.31293682214483, 23.782537394381663], [86.31136648019685, 23.78253039786581], [86.31136267434887, 23.7832529488723], [86.3105774992627, 23.783249444506236], [86.31058130944923, 23.782526893619064], [86.30979613885278, 23.782523385379776], [86.30978850965131, 23.783968486847023], [86.30821815155801, 23.7839614579122], [86.30821050439542, 23.785406558628075], [86.30899569204425, 23.785410075331345], [86.30898805295355, 23.786855176013923], [86.30977324943248, 23.7868586889633], [86.30976943399945, 23.787581239321906]], [[86.31370302767844, 23.786153642787088], [86.31291783478396, 23.78615014992343], [86.31292163255742, 23.785427598951436], [86.31370682111266, 23.78543109169618], [86.31370302767844, 23.786153642787088]], [[86.30899951136233, 23.784687524887776], [86.30978469482359, 23.784691037478375], [86.30978087984455, 23.78541358804154], [86.30899569204425, 23.785410075331345], [86.30899951136233, 23.784687524887776]]], [[[86.30743297273878, 23.783957937455575], [86.30586261555601, 23.783950884563936], [86.30585877903395, 23.784673434595966], [86.30664396188818, 23.784676963158326], [86.30663629706575, 23.78612206325809], [86.30506591415298, 23.786115001659628], [86.30506207283497, 23.786837551366798], [86.30192129148173, 23.786823379769015], [86.30191357367163, 23.788268478013844], [86.30269877746001, 23.788272027144924], [86.3027026321019, 23.78754947793579], [86.30348783170346, 23.78755302295259], [86.3034839814013, 23.78827557228241], [86.3042691854953, 23.788279113426288], [86.3042653393803, 23.789001662808456], [86.30662096559658, 23.789012262639282], [86.30662863163522, 23.787567163085075], [86.30741383199866, 23.787570688134508], [86.30741000339509, 23.788293238065716], [86.30819520825011, 23.78829675924154], [86.30819903251397, 23.78757420919046], [86.30898423318095, 23.787577726252923], [86.30898805295355, 23.786855176013923], [86.30820285662614, 23.786851659071193], [86.30821050439542, 23.785406558628075], [86.30742531689828, 23.785403037931726], [86.30743297273878, 23.783957937455575]]], [[[86.30269877746001, 23.788272027144924], [86.30269492266524, 23.78899457628585], [86.3034801309464, 23.788998121544022], [86.3034839814013, 23.78827557228241], [86.30269877746001, 23.788272027144924]]], [[[86.30426149311272, 23.78972421212242], [86.3042653393803, 23.789001662808456], [86.3034801309464, 23.788998121544022], [86.30347628033877, 23.78972067073743], [86.30426149311272, 23.78972421212242]]]]}, "properties": {"zone_id": 6, "centroid_latitude": 23.78631845133398, "centroid_longitude": 86.31015086227295, "area_km2": 0.5632, "pixel_count": 88, "median_velocity_mm_year": -88.29473876953125, "mean_velocity_mm_year": -95.4447250366211, "worst_velocity_mm_year": -171.36558532714844, "median_net_displacement_mm": -399.9330997467041, "worst_net_displacement_mm": -778.5640954971313, "median_velocity_std_mm_year": 1.8553009033203125, "median_temporal_coherence": 1.0, "median_num_interferograms": 138.0, "confidence": "very_high"}}, {"type": "Feature", "geometry": {"type": "Polygon", "coordinates": [[[86.33253294326326, 23.78912648847216], [86.33254032287043, 23.7876813811411], [86.33332552815428, 23.78768477440401], [86.33333658344891, 23.785517112549716], [86.33412177586044, 23.785520501472902], [86.33412545632714, 23.78479794726979], [86.3325550803286, 23.784791165661137], [86.33255139118357, 23.78551371963335], [86.33176619906456, 23.785510322723823], [86.33177358588641, 23.784065214942533], [86.33412913664786, 23.78407539299853], [86.3341328168226, 23.783352838659134], [86.33570317604948, 23.78335960383493], [86.33570684740093, 23.78263704919704], [86.33649202289425, 23.78264042568081], [86.33649568976158, 23.78191787085982], [86.33806603250748, 23.781924611619903], [86.33806969055271, 23.781202056501257], [86.3388548578051, 23.78120542077798], [86.33885120409819, 23.781927976011183], [86.33963637583383, 23.781931336409944], [86.33963272632047, 23.78265389168944], [86.33806237431712, 23.782647166670426], [86.33805505750107, 23.784092276567048], [86.33569950455238, 23.784082158404676], [86.33569583290965, 23.784804712906283], [86.33648102141947, 23.784808089734952], [86.33647735397027, 23.785530644283387], [86.33490696841794, 23.785523886402913], [86.33490329214457, 23.786246440653116], [86.33647368637558, 23.78625319876367], [86.33647001863541, 23.786975753175817], [86.33725522030873, 23.786979126355952], [86.3372588837094, 23.786256571828968], [86.33882927881277, 23.78626330597958], [86.33882562409117, 23.78698586073583], [86.33804042212739, 23.786982495542624], [86.33803676292112, 23.787705050116156], [86.33411073358432, 23.787688163673344], [86.33410705253361, 23.788410717603853], [86.33332184276372, 23.78840732821914], [86.33331815722697, 23.78912988196611], [86.33253294326326, 23.78912648847216]]]}, "properties": {"zone_id": 7, "centroid_latitude": 23.785165340272552, "centroid_longitude": 86.3355429988428, "area_km2": 0.24960000000000002, "pixel_count": 39, "median_velocity_mm_year": -81.32195281982422, "mean_velocity_mm_year": -84.24807739257812, "worst_velocity_mm_year": -146.58998107910156, "median_net_displacement_mm": -362.51577734947205, "worst_net_displacement_mm": -593.3147072792053, "median_velocity_std_mm_year": 1.6526107788085938, "median_temporal_coherence": 1.0, "median_num_interferograms": 139.0, "confidence": "very_high"}}, {"type": "Feature", "geometry": {"type": "Polygon", "coordinates": [[[86.22577095777274, 23.784292546926558], [86.2257752368384, 23.783570009862373], [86.2242049131352, 23.78356212650325], [86.22421777534244, 23.78139451570595], [86.22657322210893, 23.781406333548748], [86.2265603989447, 23.783573945553243], [86.22734556122056, 23.783577877251656], [86.2273498314399, 23.78285533985128], [86.22813498954685, 23.78285926742349], [86.2281307236658, 23.78358180495759], [86.22891588628026, 23.783585728671053], [86.22891162456847, 23.784308266270415], [86.22577095777274, 23.784292546926558]]]}, "properties": {"zone_id": 8, "centroid_latitude": 23.782952379488705, "centroid_longitude": 86.226115400905, "area_km2": 0.0896, "pixel_count": 14, "median_velocity_mm_year": -79.93128204345703, "mean_velocity_mm_year": -81.83091735839844, "worst_velocity_mm_year": -115.0085220336914, "median_net_displacement_mm": -341.76693856716156, "worst_net_displacement_mm": -506.58732652664185, "median_velocity_std_mm_year": 2.1073477268218994, "median_temporal_coherence": 1.0, "median_num_interferograms": 138.0, "confidence": "high"}}, {"type": "Feature", "geometry": {"type": "Polygon", "coordinates": [[[86.32863285358968, 23.784051588300667], [86.32863656413606, 23.783329034771754], [86.32785138576821, 23.783325618245392], [86.32785881509649, 23.78188051121576], [86.32864398478726, 23.781883927509465], [86.32864769489208, 23.781161373776094], [86.33021802603845, 23.78116819415384], [86.33021432461018, 23.78189074811944], [86.33099949474197, 23.78189415243571], [86.33099210012203, 23.783339260394325], [86.32942174265109, 23.783332447305362], [86.32941803644351, 23.784055000950467], [86.32863285358968, 23.784051588300667]]]}, "properties": {"zone_id": 9, "centroid_latitude": 23.782511208512467, "centroid_longitude": 86.32939026436057, "area_km2": 0.0704, "pixel_count": 11, "median_velocity_mm_year": -75.3460693359375, "mean_velocity_mm_year": -82.22708129882812, "worst_velocity_mm_year": -110.76941680908203, "median_net_displacement_mm": -292.8412854671478, "worst_net_displacement_mm": -405.4239094257355, "median_velocity_std_mm_year": 1.9774113893508911, "median_temporal_coherence": 1.0, "median_num_interferograms": 139.0, "confidence": "high"}}, {"type": "Feature", "geometry": {"type": "MultiPolygon", "coordinates": [[[[86.40018448827793, 23.762668852241493], [86.3993994229798, 23.762665802081344], [86.39939610675692, 23.763388367495732], [86.40018117638915, 23.76339141775981], [86.40018448827793, 23.762668852241493]]], [[[86.38679437335695, 23.772009780232867], [86.38757949288495, 23.772012895597058], [86.38757272679291, 23.773458021438724], [86.38678759859215, 23.7734549058623], [86.3867774354369, 23.775622593796147], [86.3875625766481, 23.77562570969092], [86.38755919299801, 23.776348272305572], [86.3859889020357, 23.77634203631219], [86.38598550957671, 23.777064598646408], [86.38677065932798, 23.777067718745155], [86.38676727107189, 23.777790281117586], [86.38755242529508, 23.77779339733072], [86.38755580921368, 23.777070834852168], [86.38834095923362, 23.777073946967434], [86.38833419993736, 23.778519072068462], [86.38911935876658, 23.778522180403684], [86.38912610938763, 23.777077055090963], [86.38991125967557, 23.77708015922275], [86.38990451772969, 23.778525284746898], [86.39068967682657, 23.778528385098085], [86.39068630999088, 23.779250947863673], [86.38990114655616, 23.779247847406904], [86.38989777524887, 23.77997040999886], [86.39068294302162, 23.77997351056121], [86.3906795759188, 23.780696073190697], [86.38910923183063, 23.780689867862403], [86.38910247987037, 23.78213499249461], [86.3898876605245, 23.782138097366413], [86.38988091670615, 23.783583221937835], [86.39066610617164, 23.783586323028114], [86.3906694738088, 23.782863760670843], [86.3922398444626, 23.782869950661695], [86.39224320328873, 23.782147388025606], [86.39145802223385, 23.782144295131914], [86.39146474816333, 23.780699169866196], [86.39224992054127, 23.78070226254927], [86.3922532789677, 23.779979699709028], [86.39303844714065, 23.779982788294486], [86.3930418010958, 23.779260225281025], [86.39382696506378, 23.77926330976914], [86.393830314548, 23.778540746582596], [86.394615474311, 23.778543826973646], [86.39461212916466, 23.77926639026509], [86.39539729339823, 23.77926946676887], [86.39539061138369, 23.78071459335716], [86.39617578442609, 23.780717666078026], [86.3961791211614, 23.779995102713272], [86.39696428999795, 23.77999817133719], [86.39697095439553, 23.77855304419457], [86.39618579423494, 23.778549975779637], [86.39618913057315, 23.77782741221076], [86.39540397488261, 23.77782433990841], [86.39541065583688, 23.776379212775794], [86.39462550895377, 23.776376136691066], [86.3946288535693, 23.77565357312747], [86.39384371115608, 23.77565049315601], [86.39384705997593, 23.774927929629268], [86.39463219805212, 23.774931009495834], [86.3946388866197, 23.773485882028464], [86.39542401615508, 23.77348895769416], [86.39543069551908, 23.772043829745165], [86.39386045392668, 23.77203767484198], [86.39385375721702, 23.77348280237169], [86.3922834988104, 23.773476631084883], [86.39229692638821, 23.770586376594107], [86.39465226216265, 23.770595626277384], [86.39464891847594, 23.771318190317196], [86.39543403500231, 23.77132126566862], [86.39543737435305, 23.77059870152406], [86.39622248667595, 23.770601772780203], [86.3962191516612, 23.771324337029384], [86.39700426845242, 23.77132740439945], [86.39700759913117, 23.77060484004579], [86.39857782443792, 23.770610962605325], [86.39858778966732, 23.768443268510577], [86.40015798948737, 23.768449374483875], [86.40015467654702, 23.769171939458147], [86.39936957223568, 23.76916888836264], [86.3993629372891, 23.77061401789926], [86.40014805027192, 23.770617069202633], [86.40015136347519, 23.769894504364398], [86.40093647225365, 23.76989755157342], [86.4009397809898, 23.769174986563367], [86.40172488556388, 23.769178029678294], [86.4017314939715, 23.767732899246845], [86.40251659000587, 23.76773593816443], [86.40251988967785, 23.767013372743165], [86.40330498150801, 23.767016407567343], [86.40330168617118, 23.76773897309199], [86.40565697545105, 23.767748053934515], [86.40566353998346, 23.766302922198523], [86.40487845209651, 23.766299899447002], [86.40488173850218, 23.765577333579987], [86.40409665508048, 23.765574306941822], [86.40409336434, 23.766296872705723], [86.4025231892189, 23.7662908072539], [86.40252648862901, 23.76556824169663], [86.40174140559958, 23.76556520308961], [86.40174470921342, 23.76484263756786], [86.40095963064971, 23.764839595074875], [86.40096624615282, 23.76339446403468], [86.40018117638915, 23.76339141775981], [86.40017786436894, 23.76411398321012], [86.39939279040244, 23.76411093284212], [86.39939610675692, 23.763388367495732], [86.3986110372563, 23.763385313242456], [86.3986176782385, 23.761940182553804], [86.39704755696886, 23.761934062496728], [86.39706087202002, 23.759043801137523], [86.39784591525486, 23.759046862743208], [86.39784923935431, 23.75832429712909], [86.39627916168286, 23.758318170138132], [86.3962724960194, 23.759763300880795], [86.39470240154446, 23.759757157518226], [86.3947057431088, 23.75903459239023], [86.3939207004034, 23.759031514831058], [86.39391735450585, 23.759754079854194], [86.39313230760001, 23.759750998201657], [86.39312895723626, 23.76047356305178], [86.39234390613, 23.760470477305603], [86.3923405512997, 23.76119304198258], [86.39155549599302, 23.761189952142495], [86.39155213669584, 23.761912516646184], [86.39076707718876, 23.761909422711913], [86.39076034952643, 23.763354551304428], [86.38997528148487, 23.76335145317016], [86.3899719131192, 23.76407401725884], [86.39075698549502, 23.76407711549867], [86.3907536213301, 23.76479967962489], [86.38918346804331, 23.76479347894468], [86.3891800950757, 23.76551604279163], [86.38996517598686, 23.765519145232147], [86.38996180722016, 23.766241709116773], [86.38917672197425, 23.766238606570557], [86.38917334873895, 23.76696117028147], [86.38995843831978, 23.76696427293338], [86.3899550692857, 23.76768683668196], [86.39074016333534, 23.767689935449585], [86.39073679850284, 23.768412499235705], [86.39230699567305, 23.768418685011724], [86.39230363937796, 23.769141248940546], [86.39073343353684, 23.769135062953804], [86.39073006843729, 23.769857626603876], [86.38994496138132, 23.76985452751956], [86.38994159181246, 23.770577090996035], [86.3883713694302, 23.770570880644694], [86.38837474767064, 23.769848317379758], [86.38758964101629, 23.769845206324277], [86.3875930234583, 23.76912264309728], [86.38994833081648, 23.76913196397505], [86.38995170011793, 23.76840940036252], [86.38524111262214, 23.768390723331017], [86.38522753055736, 23.771280974827977], [86.3844424157692, 23.77127784759796], [86.38442541347425, 23.774890659905658], [86.38599568654993, 23.774896911439598], [86.38600586231186, 23.77272922362038], [86.38679098604176, 23.772732343081607], [86.38679437335695, 23.772009780232867]], [[86.39462216420556, 23.777098700186638], [86.39383701311779, 23.777095620005383], [86.39384036220338, 23.776373056614716], [86.39462550895377, 23.776376136691066], [86.39462216420556, 23.777098700186638]], [[86.38758625844005, 23.77056776948324], [86.38680114758414, 23.770564654331277], [86.38680453449615, 23.76984209127842], [86.38758964101629, 23.769845206324277], [86.38758625844005, 23.77056776948324]], [[86.38522073871654, 23.77272610016823], [86.38522413470433, 23.772003537532125], [86.38600925396335, 23.772006660877885], [86.38600586231186, 23.77272922362038], [86.38522073871654, 23.77272610016823]], [[86.39227006910137, 23.77636688448713], [86.39226671134108, 23.777089447667592], [86.39148156065245, 23.777086355511063], [86.3914849227501, 23.776363792435905], [86.39227006910137, 23.77636688448713]], [[86.38913285947307, 23.77563192950606], [86.3891294844973, 23.776354492332533], [86.38834433868062, 23.776351384314857], [86.38834771799355, 23.77562882159422], [86.38913285947307, 23.77563192950606]], [[86.3922767842223, 23.774921757922076], [86.39227342672845, 23.77564432123862], [86.39148828471436, 23.775641229292695], [86.39149164654522, 23.774918666081458], [86.3922767842223, 23.774921757922076]], [[86.38993485227363, 23.77202221774489], [86.38993148230362, 23.77274478101727], [86.38914635803715, 23.772741677519743], [86.38914973234345, 23.77201911435307], [86.38993485227363, 23.77202221774489]], [[86.39859443249456, 23.766998138774017], [86.39859111114684, 23.767720703676304], [86.39780601576976, 23.767717644808634], [86.39780934145261, 23.76699508001055], [86.39859443249456, 23.766998138774017]], [[86.39309879797827, 23.76697664364254], [86.39231370786372, 23.766973556950028], [86.3923170637593, 23.766250992817145], [86.3931021495389, 23.766254079404508], [86.39309879797827, 23.76697664364254]], [[86.39153197811284, 23.766247902240067], [86.39153533821002, 23.76552533814446], [86.39232041952168, 23.76552842861625], [86.3923170637593, 23.766250992817145], [86.39153197811284, 23.766247902240067]], [[86.39311890534712, 23.762641257194126], [86.39311555445146, 23.763363821772227], [86.3923304860099, 23.763360735605467], [86.39233384123965, 23.76263817113251], [86.39311890534712, 23.762641257194126]]], [[[86.39302502998945, 23.782873039667862], [86.39381021564938, 23.782876124681184], [86.39381691581382, 23.781430998920506], [86.39460209292935, 23.781434079731163], [86.3945954014422, 23.78287920570165], [86.39538058736775, 23.78288228272927], [86.39539061138369, 23.78071459335716], [86.39460543847383, 23.78071151664386], [86.3946087838856, 23.779988953488495], [86.39382361544668, 23.779985872887647], [86.39382026569669, 23.7807084359381], [86.39224992054127, 23.78070226254927], [86.39224320328873, 23.782147388025606], [86.39302838447686, 23.78215047692659], [86.39302502998945, 23.782873039667862]]]]}, "properties": {"zone_id": 10, "centroid_latitude": 23.770139118669103, "centroid_longitude": 86.39353867268304, "area_km2": 2.1888, "pixel_count": 342, "median_velocity_mm_year": -89.68817138671875, "mean_velocity_mm_year": -100.70579528808594, "worst_velocity_mm_year": -238.908447265625, "median_net_displacement_mm": -408.9099317789078, "worst_net_displacement_mm": -1060.9679222106934, "median_velocity_std_mm_year": 1.9418797492980957, "median_temporal_coherence": 1.0, "median_num_interferograms": 138.0, "confidence": "very_high"}}, {"type": "Feature", "geometry": {"type": "MultiPolygon", "coordinates": [[[[86.19678205827218, 23.774028660268446], [86.19677762097544, 23.77475119316792], [86.19756272464069, 23.77475527490932], [86.19756715760137, 23.774032741870837], [86.19678205827218, 23.774028660268446]]], [[[86.1959880756772, 23.77546964012778], [86.19598363369195, 23.776192172751372], [86.19833897070548, 23.776204418809655], [86.19833454155373, 23.776926951781917], [86.19990477578146, 23.776935096143227], [86.19990035512755, 23.777657629324477], [86.20068547684133, 23.77766169565692], [86.20068106034897, 23.778384228908283], [86.20146618657492, 23.778388291387806], [86.20145736173896, 23.77983335796212], [86.20302763206465, 23.77984147149949], [86.20301882387874, 23.78128653835289], [86.20380396797886, 23.78129058940993], [86.20379956796165, 23.782013122872023], [86.20458471657413, 23.7820171700749], [86.20458911225352, 23.781294636475018], [86.20537425670254, 23.781298679548133], [86.20536986536099, 23.78202121328569], [86.20615501432205, 23.782025252504383], [86.20616817481111, 23.77985765067404], [86.20538303886305, 23.77985361186794], [86.20537864786989, 23.780576145742213], [86.20459350775852, 23.780572102806758], [86.20459790308917, 23.779849569070137], [86.20381276748964, 23.779845522280656], [86.20381716698324, 23.779122988613473], [86.20303203589556, 23.77911893797024], [86.20303643955175, 23.778396404372632], [86.20225131297589, 23.778392349875922], [86.20226012843796, 23.776947282751756], [86.20304524634007, 23.776951336972335], [86.20304964947219, 23.776228803169648], [86.20461987712706, 23.776236899361678], [86.20462866552182, 23.774791830999803], [86.2030584552124, 23.77478373535921], [86.20306285782048, 23.774061201351458], [86.20384795855183, 23.774065251029203], [86.20385235664932, 23.773342716815183], [86.2030672602539, 23.77333866727536], [86.20307606459674, 23.771893598918115], [86.20229097704731, 23.77188954566395], [86.20229538329215, 23.771167011520863], [86.19994013469973, 23.771154828232245], [86.19993571544869, 23.77187736196036], [86.19915062859961, 23.771873292745486], [86.19913735678719, 23.774040893103912], [86.19835225710642, 23.774036819482664], [86.19834782848183, 23.774759352660016], [86.19756272464069, 23.77475527490932], [86.19755829150412, 23.775477807879444], [86.1959880756772, 23.77546964012778]]], [[[86.20383036441686, 23.776955387201774], [86.20304524634007, 23.776951336972335], [86.20304084303325, 23.77767387070666], [86.20382596544684, 23.777677921074034], [86.20383036441686, 23.776955387201774]]], [[[86.2053918203268, 23.7784085439143], [86.20460669322738, 23.778404501391822], [86.20459790308917, 23.779849569070137], [86.20538303886305, 23.77985361186794], [86.2053918203268, 23.7784085439143]]]]}, "properties": {"zone_id": 11, "centroid_latitude": 23.77595750279672, "centroid_longitude": 86.20156590912906, "area_km2": 0.4736, "pixel_count": 74, "median_velocity_mm_year": -87.73201751708984, "mean_velocity_mm_year": -92.87052154541016, "worst_velocity_mm_year": -145.51275634765625, "median_net_displacement_mm": -430.821493268013, "worst_net_displacement_mm": -654.9522280693054, "median_velocity_std_mm_year": 1.9220149517059326, "median_temporal_coherence": 1.0, "median_num_interferograms": 138.0, "confidence": "very_high"}}, {"type": "Feature", "geometry": {"type": "MultiPolygon", "coordinates": [[[[86.37739702118614, 23.76691415172326], [86.37975228425934, 23.766923627251618], [86.37975570951355, 23.766201064819672], [86.3805407931418, 23.76620421524218], [86.38053737222248, 23.76692677778146], [86.38132246032137, 23.766929924321484], [86.38132929335468, 23.76548479896052], [86.38211437291953, 23.765487941296616], [86.38211778489827, 23.76476537840703], [86.38447301140087, 23.76477478115771], [86.38447980894634, 23.763329654533763], [86.38369474197897, 23.763326524486246], [86.38369814488343, 23.76260396117888], [86.3821280200221, 23.762597689330107], [86.38212460844954, 23.763320252423778], [86.37976940917129, 23.76331081441154], [86.37976598446072, 23.764033377115624], [86.37898091397203, 23.76403022302582], [86.37897748479118, 23.764752785554414], [86.3781924101042, 23.764749627367753], [86.37818897645272, 23.765472189720715], [86.37740389756746, 23.765469027436925], [86.37740733555347, 23.7647464651917], [86.37662226113919, 23.764743299026247], [86.37661193376773, 23.7669109852342], [86.37582684648594, 23.766907814755342], [86.37583029341457, 23.766185252862073], [86.37504521060441, 23.766182078501565], [86.37504175934092, 23.76690464028669], [86.37425667233286, 23.766901461828244], [86.37425321659735, 23.767624023437047], [86.3734681253914, 23.767620840880397], [86.37347158546194, 23.76689827938001], [86.37268649872833, 23.76689509294199], [86.37267956977969, 23.768340215657602], [86.37110937938458, 23.768333830377184], [86.3711024325442, 23.76977895238557], [86.37188753634385, 23.769782147238455], [86.37188406705262, 23.77050470824939], [86.37266917532565, 23.77050789922065], [86.37266571023265, 23.77123046027222], [86.37345082297905, 23.771233647361576], [86.37345428373615, 23.77051108620144], [86.37423939228398, 23.77051426919177], [86.37424976072472, 23.768346584977802], [86.37503485640303, 23.76834976365281], [86.37503140472865, 23.7690723252338], [86.3758165048793, 23.76907550002689], [86.37581995221831, 23.768352938337753], [86.37660504817036, 23.768356109032627], [86.37660849103736, 23.76763354716743], [86.37739358279082, 23.76763671376437], [86.37739702118614, 23.76691415172326]]], [[[86.37739014425905, 23.76835927573743], [86.37817524048417, 23.768362438452165], [86.37817867468071, 23.76763987637136], [86.37739358279082, 23.76763671376437], [86.37739014425905, 23.76835927573743]]]]}, "properties": {"zone_id": 12, "centroid_latitude": 23.766503302391516, "centroid_longitude": 86.37768133675942, "area_km2": 0.3648, "pixel_count": 57, "median_velocity_mm_year": -76.79331970214844, "mean_velocity_mm_year": -79.28841400146484, "worst_velocity_mm_year": -114.0052261352539, "median_net_displacement_mm": -319.2748427391052, "worst_net_displacement_mm": -469.89116072654724, "median_velocity_std_mm_year": 1.6923779249191284, "median_temporal_coherence": 1.0, "median_num_interferograms": 139.0, "confidence": "very_high"}}, {"type": "Feature", "geometry": {"type": "Polygon", "coordinates": [[[86.42686096160017, 23.76638302835052], [86.42686412662958, 23.76566045965152], [86.4260790396213, 23.76565754472383], [86.42608537797263, 23.76421240732053], [86.42687045631162, 23.764215322049612], [86.42687362096424, 23.76349275314671], [86.42765869509444, 23.7634956637872], [86.42766185528724, 23.762773094717165], [86.42844692520862, 23.762776001269334], [86.42845008094197, 23.762053432032307], [86.42923514665453, 23.76205633449642], [86.42924775100104, 23.759166056473198], [86.43081784813215, 23.75917184864484], [86.43080213572351, 23.762784696990863], [86.43001706542694, 23.76278180240618], [86.43001391823681, 23.7635043717729], [86.42922884373088, 23.763501473100295], [86.42922569208146, 23.764224042300295], [86.43001077092177, 23.764226941071662], [86.430004475917, 23.765672079465297], [86.42921938840735, 23.765669180496406], [86.42921623638267, 23.766391749492517], [86.42686096160017, 23.76638302835052]], [[86.42765237433254, 23.764940801723373], [86.42922254030694, 23.764946611432332], [86.42922569208146, 23.764224042300295], [86.42765553477619, 23.76421823278927], [86.42765237433254, 23.764940801723373]]]}, "properties": {"zone_id": 13, "centroid_latitude": 23.76326776788375, "centroid_longitude": 86.42883732022501, "area_km2": 0.1792, "pixel_count": 28, "median_velocity_mm_year": -71.53749084472656, "mean_velocity_mm_year": -76.26438903808594, "worst_velocity_mm_year": -108.114013671875, "median_net_displacement_mm": -321.5921223163605, "worst_net_displacement_mm": -473.377525806427, "median_velocity_std_mm_year": 1.788722038269043, "median_temporal_coherence": 1.0, "median_num_interferograms": 139.0, "confidence": "very_high"}}, {"type": "Feature", "geometry": {"type": "MultiPolygon", "coordinates": [[[[86.33036965821472, 23.75154342290964], [86.33037335347906, 23.750820866083323], [86.32958836988493, 23.75081746276368], [86.32958467028953, 23.751540019474003], [86.33036965821472, 23.75154342290964]]], [[[86.32720371514921, 23.75658767787054], [86.32877375090894, 23.756594506304484], [86.3287774558647, 23.755871950186915], [86.32956246963296, 23.755875358306156], [86.32955136732186, 23.75804302680304], [86.33033639423431, 23.75804643128273], [86.33034009081896, 23.757323875069186], [86.33112511354553, 23.757327275445004], [86.33112880565102, 23.756604719047495], [86.3303437872569, 23.75660131878755], [86.33034748354812, 23.755878762437828], [86.33191751181838, 23.755885558738374], [86.33193594775643, 23.752272774810418], [86.33036596280368, 23.752265979667875], [86.33036226724597, 23.75298853635804], [86.32957727065815, 23.752985132690394], [86.32958467028953, 23.751540019474003], [86.3287996825112, 23.75153661205159], [86.32880338643766, 23.750814055457408], [86.32644843697868, 23.750803809618805], [86.32644472005907, 23.75152636586376], [86.3280146948799, 23.751533200642413], [86.32800727792328, 23.752978313393985], [86.32565228992546, 23.7529680545466], [86.32564856823164, 23.753690610470617], [86.32643356841497, 23.753694034190126], [86.32642985090517, 23.754416590162737], [86.3256448463901, 23.75441316632654], [86.32564112440083, 23.75513572211437], [86.32721114224232, 23.755142566032692], [86.32720371514921, 23.75658767787054]], [[86.32721485556779, 23.754420010011625], [86.3279998603778, 23.75442342587321], [86.32799615138424, 23.755145982010692], [86.32721114224232, 23.755142566032692], [86.32721485556779, 23.754420010011625]], [[86.33035487569045, 23.754433649534104], [86.33113988108829, 23.754437049446434], [86.3311361894224, 23.7551596060482], [86.33035117969264, 23.755156206020004], [86.33035487569045, 23.754433649534104]]]]}, "properties": {"zone_id": 14, "centroid_latitude": 23.754100474994587, "centroid_longitude": 86.32908776742522, "area_km2": 0.2752, "pixel_count": 43, "median_velocity_mm_year": -72.07707977294922, "mean_velocity_mm_year": -71.79059600830078, "worst_velocity_mm_year": -92.68891143798828, "median_net_displacement_mm": -302.565336227417, "worst_net_displacement_mm": -387.7176344394684, "median_velocity_std_mm_year": 1.278374433517456, "median_temporal_coherence": 1.0, "median_num_interferograms": 139.0, "confidence": "very_high"}}, {"type": "Feature", "geometry": {"type": "Polygon", "coordinates": [[[86.43083984026647, 23.7541138581066], [86.43084926359649, 23.751946146856838], [86.4300642582928, 23.75194325375138], [86.43007054855221, 23.750498112775755], [86.4285005556451, 23.750492314998713], [86.42851001608366, 23.748324603618627], [86.4292949994818, 23.74832750420395], [86.42929814838034, 23.747604933509187], [86.43165308633228, 23.747613611050678], [86.43164995042562, 23.74833618204124], [86.43400490248987, 23.74834482400047], [86.43400177945114, 23.749067395217693], [86.43243180262243, 23.74906163770174], [86.43242867079775, 23.749784208654788], [86.43164367823883, 23.749781323818592], [86.43163740555401, 23.751226465324237], [86.43320740812115, 23.751232231402962], [86.43320115226463, 23.75267737302995], [86.43241614225575, 23.752674491787694], [86.43240987723873, 23.75411963294655], [86.43083984026647, 23.7541138581066]]]}, "properties": {"zone_id": 15, "centroid_latitude": 23.750343665950457, "centroid_longitude": 86.43105248115532, "area_km2": 0.2048, "pixel_count": 32, "median_velocity_mm_year": -85.4712905883789, "mean_velocity_mm_year": -87.10608673095703, "worst_velocity_mm_year": -117.25994873046875, "median_net_displacement_mm": -363.4789139032364, "worst_net_displacement_mm": -494.951069355011, "median_velocity_std_mm_year": 2.328456401824951, "median_temporal_coherence": 1.0, "median_num_interferograms": 139.0, "confidence": "very_high"}}, {"type": "Feature", "geometry": {"type": "MultiPolygon", "coordinates": [[[[86.41987520700377, 23.74829243407559], [86.41987840786952, 23.747569864576278], [86.41830845288865, 23.747563963946135], [86.41830524336174, 23.748286533244304], [86.41987520700377, 23.74829243407559]]], [[[86.41752026173177, 23.748283576849047], [86.4175170477467, 23.749006145978495], [86.41673206191358, 23.749003185495923], [86.41672884347001, 23.74972575445652], [86.41594385343372, 23.749722789886352], [86.41593418434262, 23.751890496057285], [86.41671918737266, 23.7518934609306], [86.41672240619955, 23.75117089217385], [86.41750740502594, 23.75117385295917], [86.4175041905305, 23.751896421816834], [86.41828919381592, 23.751899378715986], [86.41829561401651, 23.750454240731152], [86.41986560364408, 23.750460142165885], [86.41986880489105, 23.749737572870398], [86.41908381434475, 23.749734624246944], [86.41908701979557, 23.74901205498402], [86.41830203370742, 23.749009102474528], [86.41830524336174, 23.748286533244304], [86.41752026173177, 23.748283576849047]]]]}, "properties": {"zone_id": 16, "centroid_latitude": 23.74991046649521, "centroid_longitude": 86.4178074018364, "area_km2": 0.1024, "pixel_count": 16, "median_velocity_mm_year": -77.21134948730469, "mean_velocity_mm_year": -83.47152709960938, "worst_velocity_mm_year": -117.67276000976562, "median_net_displacement_mm": -340.6261056661606, "worst_net_displacement_mm": -506.9699287414551, "median_velocity_std_mm_year": 1.4968287944793701, "median_temporal_coherence": 1.0, "median_num_interferograms": 139.0, "confidence": "high"}}, {"type": "Feature", "geometry": {"type": "MultiPolygon", "coordinates": [[[[86.43792672368957, 23.74908171924213], [86.4379298250742, 23.748359147536654], [86.43871480996113, 23.748362000284487], [86.43870861573052, 23.749807143822018], [86.44106359711375, 23.749815678728503], [86.44106668129751, 23.749093106702777], [86.44185167100602, 23.749095943601404], [86.44185475073651, 23.74837337141106], [86.44106976535883, 23.748370534609133], [86.44107901680825, 23.746202817920757], [86.44186398919443, 23.746205654432583], [86.44187014755512, 23.744760509440745], [86.44108518382909, 23.7447576731223], [86.44108826715588, 23.744035100621215], [86.44030330788203, 23.744032260413803], [86.44030022022544, 23.74475483281806], [86.43873029338612, 23.744749140252182], [86.43872719694699, 23.745471712394462], [86.43794222938166, 23.745468860035594], [86.43794533015075, 23.744746287990544], [86.43480547844207, 23.74473483908614], [86.43480236035316, 23.745457410740862], [86.43558732742503, 23.745460279043424], [86.43557487115288, 23.748350565374338], [86.43714484031042, 23.74835629080235], [86.43714173459495, 23.74907886241045], [86.43792672368957, 23.74908171924213]], [[86.43793912848948, 23.746191432012722], [86.43872410038493, 23.746194284468835], [86.43872100369994, 23.7469168564753], [86.4371510513715, 23.746911147382406], [86.43714794590261, 23.747633719126334], [86.43636296559275, 23.747630858503076], [86.43636918506805, 23.74618571514232], [86.43715415671711, 23.746188575570557], [86.43715726193945, 23.745466003690797], [86.43794222938166, 23.745468860035594], [86.43793912848948, 23.746191432012722]]], [[[86.43635674562363, 23.74907600159216], [86.43635363545387, 23.74979857303483], [86.43713862875619, 23.749801433950633], [86.43714173459495, 23.74907886241045], [86.43635674562363, 23.74907600159216]]]]}, "properties": {"zone_id": 17, "centroid_latitude": 23.74698601217859, "centroid_longitude": 86.43881415837913, "area_km2": 0.26880000000000004, "pixel_count": 42, "median_velocity_mm_year": -83.95376586914062, "mean_velocity_mm_year": -87.00564575195312, "worst_velocity_mm_year": -125.08322143554688, "median_net_displacement_mm": -349.3276536464691, "worst_net_displacement_mm": -496.8165457248688, "median_velocity_std_mm_year": 1.4274647235870361, "median_temporal_coherence": 1.0, "median_num_interferograms": 138.0, "confidence": "very_high"}}, {"type": "Feature", "geometry": {"type": "MultiPolygon", "coordinates": [[[[86.43089008506088, 23.7425527243767], [86.43088694569616, 23.743275295744233], [86.43167189915805, 23.743278183680978], [86.43167503419335, 23.742555612214993], [86.43245998345026, 23.742558496067918], [86.43246311403185, 23.741835924435694], [86.4332480590838, 23.74183880420507], [86.43325118521199, 23.741116232406753], [86.43482106702992, 23.741121979793835], [86.43482418437615, 23.74039940773166], [86.43639405803134, 23.740405138982915], [86.43639716659631, 23.73968256665742], [86.433257437096, 23.73967108860641], [86.43326056285186, 23.73894851660439], [86.4324756351152, 23.738945637227747], [86.43247250503079, 23.73966820913159], [86.43090264127338, 23.73966243822748], [86.43090578001492, 23.738939866520404], [86.42933592541314, 23.738934079874337], [86.42932963049084, 23.740379222825954], [86.43011456638662, 23.740382118338776], [86.43010513605307, 23.742549832553056], [86.43089008506088, 23.7425527243767]]], [[[86.42775975907439, 23.74037341984546], [86.4277502897792, 23.742541133169965], [86.42618039288962, 23.742535313654482], [86.426186723195, 23.74109017190287], [86.42540178359694, 23.741087256365923], [86.42539544463327, 23.74253239791872], [86.42461049650274, 23.74252947819761], [86.42460732250275, 23.743252048772582], [86.42539227496268, 23.743254968593238], [86.42538910516622, 23.743977539199836], [86.42460414837673, 23.743974619279633], [86.42460097412469, 23.744697189718764], [86.42381601313149, 23.744694265713267], [86.42380965558934, 23.74613940618837], [86.42616456492686, 23.746148166844893], [86.42617089648901, 23.744703025772502], [86.42695585785977, 23.74470593782074], [86.42695269647146, 23.74542850849018], [86.4285226282492, 23.745434320827535], [86.42852578097765, 23.744711749959947], [86.42931074272444, 23.744714650050916], [86.42930759432592, 23.745437221017365], [86.43009256052761, 23.745440117221296], [86.4300894163342, 23.746162688218565], [86.43165935777213, 23.746168468865783], [86.43166249330532, 23.745445897671456], [86.43087752685415, 23.74544300943933], [86.4308806665928, 23.744720438275547], [86.4300957045962, 23.744717546156114], [86.43010513605307, 23.742549832553056], [86.42932018717008, 23.74254693674405], [86.42932963049084, 23.740379222825954], [86.42775975907439, 23.74037341984546]], [[86.42931703914651, 23.743269507914256], [86.42853208605908, 23.743266608021024], [86.42853523841205, 23.74254403694968], [86.42932018717008, 23.74254693674405], [86.42931703914651, 23.743269507914256]]], [[[86.42223652904083, 23.746856115756472], [86.42380647662895, 23.74686197632403], [86.42380965558934, 23.74613940618837], [86.42223971666171, 23.746133545820594], [86.42223652904083, 23.746856115756472]]]]}, "properties": {"zone_id": 18, "centroid_latitude": 23.74264872037248, "centroid_longitude": 86.42913814803987, "area_km2": 0.4288, "pixel_count": 67, "median_velocity_mm_year": -78.21952056884766, "mean_velocity_mm_year": -83.01001739501953, "worst_velocity_mm_year": -133.4188690185547, "median_net_displacement_mm": -370.24059891700745, "worst_net_displacement_mm": -588.2699489593506, "median_velocity_std_mm_year": 1.3045614957809448, "median_temporal_coherence": 1.0, "median_num_interferograms": 139.0, "confidence": "very_high"}}, {"type": "Feature", "geometry": {"type": "MultiPolygon", "coordinates": [[[[86.43562468437455, 23.736789413531522], [86.43483976925079, 23.736786546402264], [86.43483665252339, 23.73750911880394], [86.4356215719752, 23.737511986030963], [86.43562468437455, 23.736789413531522]]], [[[86.43561845945229, 23.73823455846251], [86.43483353567223, 23.738231691137717], [86.4348304186973, 23.7389542634036], [86.43718520339331, 23.738962853717197], [86.437188307383, 23.738240281158408], [86.4387581558067, 23.738245987916038], [86.43876125101664, 23.737523415094763], [86.43719141124944, 23.737517708531723], [86.43719451499264, 23.73679513583715], [86.43640959962188, 23.73679227667648], [86.43640649155063, 23.737514849273555], [86.4356215719752, 23.737511986030963], [86.43561845945229, 23.73823455846251]]]]}, "properties": {"zone_id": 19, "centroid_latitude": 23.73795689821245, "centroid_longitude": 86.43653541249505, "area_km2": 0.057600000000000005, "pixel_count": 9, "median_velocity_mm_year": -67.2458724975586, "mean_velocity_mm_year": -71.28616333007812, "worst_velocity_mm_year": -87.79776763916016, "median_net_displacement_mm": -350.71492195129395, "worst_net_displacement_mm": -420.7300543785095, "median_velocity_std_mm_year": 1.446864366531372, "median_temporal_coherence": 1.0, "median_num_interferograms": 139.0, "confidence": "high"}}, {"type": "Feature", "geometry": {"type": "Polygon", "coordinates": [[[86.4356277966503, 23.736066840964178], [86.43563402083105, 23.734621695625822], [86.43484911869045, 23.734618828789873], [86.43485223492284, 23.733896256116633], [86.43563713273606, 23.73389912285481], [86.43564646770967, 23.73173140413446], [86.43643135266537, 23.731734266596014], [86.43644067354734, 23.729566546971846], [86.43722554564684, 23.729569405157587], [86.43723175029905, 23.728124258207114], [86.43801661386955, 23.728127112215212], [86.438019711685, 23.72740453854082], [86.43723485244033, 23.727401684630067], [86.43723795445842, 23.726679110985152], [86.43645309966261, 23.726676253189357], [86.43646862953089, 23.72306338443416], [86.43803829599419, 23.72306909506923], [86.43803519891688, 23.723791669150824], [86.43960487452188, 23.72379736405331], [86.43959869729848, 23.72524251240147], [86.43881385078441, 23.725239666747008], [86.43881075766338, 23.72596224072222], [86.44116531054942, 23.725970766030027], [86.44116223028203, 23.726693340228202], [86.44194708581448, 23.726696174129597], [86.44194400975043, 23.72741874835657], [86.4395894305433, 23.72741023441473], [86.43958634137952, 23.728132808283412], [86.44115606938026, 23.728138488420928], [86.44115298874584, 23.72886106241549], [86.4403681203582, 23.728858224241264], [86.44036503527524, 23.729580798071158], [86.43958016268392, 23.72957795581718], [86.43957707315208, 23.730300529482253], [86.44036195006976, 23.73030337183318], [86.44035886474175, 23.73102594552732], [86.4411437461085, 23.731028783991974], [86.44113758373848, 23.732473931370258], [86.43721313486387, 23.732459698244007], [86.43721003186006, 23.733182271345907], [86.43799492571628, 23.733185126035483], [86.43799182691647, 23.73390769916686], [86.43720692873305, 23.733904844379932], [86.43720072210932, 23.73534999024431], [86.43641581539418, 23.735347131278633], [86.43641270756974, 23.736069704011502], [86.4356277966503, 23.736066840964178]], [[86.43880457105273, 23.72740738846904], [86.4395894305433, 23.72741023441473], [86.43959251958438, 23.726687660478174], [86.43880766441947, 23.726684814629564], [86.43880457105273, 23.72740738846904]]]}, "properties": {"zone_id": 20, "centroid_latitude": 23.7292435218317, "centroid_longitude": 86.43819650560732, "area_km2": 0.43520000000000003, "pixel_count": 68, "median_velocity_mm_year": -81.17745208740234, "mean_velocity_mm_year": -84.0636978149414, "worst_velocity_mm_year": -134.57093811035156, "median_net_displacement_mm": -379.4848173856735, "worst_net_displacement_mm": -624.1201758384705, "median_velocity_std_mm_year": 1.5203821659088135, "median_temporal_coherence": 1.0, "median_num_interferograms": 139.0, "confidence": "very_high"}}, {"type": "Feature", "geometry": {"type": "MultiPolygon", "coordinates": [[[[86.41920233130277, 23.722999516281156], [86.41919913043088, 23.72372208798902], [86.41762946132988, 23.723716186031826], [86.41762625168104, 23.724438757470466], [86.41841109049278, 23.724441710540695], [86.41840788504155, 23.72516428201218], [86.41683819889539, 23.72515837168818], [86.41682855582522, 23.727326085090414], [86.41918312416429, 23.727334945510023], [86.41917992252954, 23.72805751681054], [86.41682534121317, 23.7280486560887], [86.41682212647345, 23.728771227019084], [86.41917672076761, 23.728780088043163], [86.41917351887852, 23.72950265920789], [86.41838864966032, 23.729499709415325], [86.41838223684792, 23.730944851339842], [86.4175973591043, 23.7309418973629], [86.41759093712913, 23.732387038814295], [86.41837582352618, 23.732389992992747], [86.4183790302507, 23.731667422200243], [86.4191639124483, 23.731670372294655], [86.41916711471887, 23.730947801333635], [86.41995199271699, 23.730950747344284], [86.41995519053394, 23.730228176214883], [86.42074006433262, 23.730231118142036], [86.42074325769629, 23.729508546844393], [86.4199583882239, 23.72950560501758], [86.41996158578688, 23.72878303375238], [86.42074645093314, 23.72878597547885], [86.42074964404317, 23.728063404045415], [86.42153450499029, 23.728066341688933], [86.42153769364775, 23.727343770087405], [86.42232255039573, 23.72734670364824], [86.42232573460093, 23.726624131878754], [86.42311058714978, 23.726627061357185], [86.4231169465301, 23.72518191741468], [86.42233210263194, 23.72517898813611], [86.42232891867967, 23.725901560041372], [86.42154407058273, 23.725898626680667], [86.42155044701119, 23.72445348300236], [86.42390496573015, 23.72446227053831], [86.42390814077967, 23.72373969829756], [86.42312330540527, 23.723736773200635], [86.42312648465344, 23.723014200991795], [86.42234165373006, 23.72301127201299], [86.42234483717652, 23.722288699836184], [86.42156001070417, 23.72228576697577], [86.42156319834861, 23.72156319483115], [86.42077837632726, 23.721560258089408], [86.42077518435843, 23.722282830133842], [86.4199903581395, 23.72227988931038], [86.41998716171932, 23.723002461186603], [86.41920233130277, 23.722999516281156]], [[86.42154088217856, 23.726621198417977], [86.42075602988281, 23.726618260974863], [86.4207592226124, 23.725895689337744], [86.42154407058273, 23.725898626680667], [86.42154088217856, 23.726621198417977]], [[86.42077199226283, 23.723005402110395], [86.42076880004042, 23.72372797401906], [86.41998396517215, 23.72372503299494], [86.41998716171932, 23.723002461186603], [86.42077199226283, 23.723005402110395]], [[86.41997117771386, 23.726615319549403], [86.41840147375709, 23.726609424751484], [86.41840467946297, 23.72588685341578], [86.41918952705237, 23.725889802705296], [86.41919272830567, 23.7251672312011], [86.41997757169696, 23.72517017640795], [86.41997117771386, 23.726615319549403]], [[86.41998076849804, 23.72444760473539], [86.42076560769122, 23.724450545859845], [86.42076241521521, 23.725173117632735], [86.41997757169696, 23.72517017640795], [86.41998076849804, 23.72444760473539]]], [[[86.41916071005055, 23.732392943187765], [86.42073048348065, 23.732398831627552], [86.4207336772248, 23.731676260533614], [86.4191639124483, 23.731670372294655], [86.41916071005055, 23.732392943187765]]]]}, "properties": {"zone_id": 21, "centroid_latitude": 23.72656365473751, "centroid_longitude": 86.41995739086852, "area_km2": 0.3584, "pixel_count": 56, "median_velocity_mm_year": -73.36904907226562, "mean_velocity_mm_year": -75.3744888305664, "worst_velocity_mm_year": -105.79682922363281, "median_net_displacement_mm": -315.28791785240173, "worst_net_displacement_mm": -436.8664026260376, "median_velocity_std_mm_year": 1.9528831243515015, "median_temporal_coherence": 1.0, "median_num_interferograms": 139.0, "confidence": "very_high"}}, {"type": "Feature", "geometry": {"type": "Polygon", "coordinates": [[[86.44745630505905, 23.723103024414822], [86.44746239505494, 23.721657873733047], [86.4451079170918, 23.721649445725138], [86.44511403254936, 23.720204295347056], [86.44589884976737, 23.720207108472536], [86.44590190298999, 23.71948453308575], [86.44433227732338, 23.719478903045697], [86.44433533907232, 23.71875632778316], [86.44512014752111, 23.7187591446976], [86.4451232048248, 23.718036569271106], [86.4474776179282, 23.718044995841364], [86.44746848456707, 23.720212722779902], [86.44825330214842, 23.720215523961777], [86.44824113993806, 23.723105825978998], [86.44745630505905, 23.723103024414822]]]}, "properties": {"zone_id": 22, "centroid_latitude": 23.720190533076952, "centroid_longitude": 86.44658048191106, "area_km2": 0.1216, "pixel_count": 19, "median_velocity_mm_year": -87.78868103027344, "mean_velocity_mm_year": -94.61702728271484, "worst_velocity_mm_year": -161.87266540527344, "median_net_displacement_mm": -383.11976194381714, "worst_net_displacement_mm": -705.8466672897339, "median_velocity_std_mm_year": 1.7205567359924316, "median_temporal_coherence": 1.0, "median_num_interferograms": 138.0, "confidence": "high"}}, {"type": "Feature", "geometry": {"type": "Polygon", "coordinates": [[[86.44361182662774, 23.704301989316924], [86.44361795353747, 23.702856836067753], [86.44597209364281, 23.702865280468313], [86.44597514395552, 23.70214270345374], [86.44754456265903, 23.702148312972927], [86.44754152098605, 23.702870890179003], [86.44832623483906, 23.702873689067435], [86.44832319736526, 23.703596266301258], [86.4475384791922, 23.70359346731728], [86.44753543727748, 23.70431604438774], [86.44361182662774, 23.704301989316924]]]}, "properties": {"zone_id": 23, "centroid_latitude": 23.70339320943686, "centroid_longitude": 86.44593968307976, "area_km2": 0.08320000000000001, "pixel_count": 13, "median_velocity_mm_year": -79.0243911743164, "mean_velocity_mm_year": -80.94677734375, "worst_velocity_mm_year": -96.98216247558594, "median_net_displacement_mm": -326.51954889297485, "worst_net_displacement_mm": -432.68662691116333, "median_velocity_std_mm_year": 1.3033051490783691, "median_temporal_coherence": 1.0, "median_num_interferograms": 139.0, "confidence": "high"}}, {"type": "Feature", "geometry": {"type": "Polygon", "coordinates": [[[86.38560363344372, 23.69107609209575], [86.38560701422621, 23.690353521781013], [86.38639164459148, 23.690356633112557], [86.38639839712008, 23.688911492066996], [86.38561377538804, 23.688908380947954], [86.3856171557674, 23.688185810429633], [86.38640177318308, 23.68818892144242], [86.38641190056696, 23.686021209161574], [86.38719650516876, 23.686024315880985], [86.38719313382418, 23.686746886815236], [86.38797774287585, 23.686749989666012], [86.38797437571327, 23.68747256063839], [86.38718976234557, 23.687469457681637], [86.38718639073296, 23.688192028480188], [86.38797100841686, 23.68819513154292], [86.38796427342247, 23.689640273148406], [86.38953352645747, 23.689646467771897], [86.38953016739292, 23.690369038684413], [86.38874553649187, 23.69036594325461], [86.3887421729769, 23.69108851399356], [86.38560363344372, 23.69107609209575]]]}, "properties": {"zone_id": 24, "centroid_latitude": 23.689148646051738, "centroid_longitude": 86.38725115956922, "area_km2": 0.10880000000000001, "pixel_count": 17, "median_velocity_mm_year": -72.95162963867188, "mean_velocity_mm_year": -76.19973754882812, "worst_velocity_mm_year": -91.17831420898438, "median_net_displacement_mm": -349.53203797340393, "worst_net_displacement_mm": -405.7075083255768, "median_velocity_std_mm_year": 1.3742461204528809, "median_temporal_coherence": 1.0, "median_num_interferograms": 139.0, "confidence": "high"}}, {"type": "Feature", "geometry": {"type": "MultiPolygon", "coordinates": [[[[86.3943212449639, 23.672323218829263], [86.39353672113131, 23.672320149874277], [86.39353338683321, 23.673042722941283], [86.39431791497844, 23.67304579200114], [86.3943212449639, 23.672323218829263]]], [[[86.39431458486057, 23.673768365105204], [86.39353005240255, 23.673765295940477], [86.3935267178393, 23.674487868871854], [86.39431125461026, 23.674490938141457], [86.39431458486057, 23.673768365105204]]], [[[86.39431458486057, 23.673768365105204], [86.39509911745098, 23.6737714302976], [86.39509579151365, 23.67449400343859], [86.39431125461026, 23.674490938141457], [86.39430459371243, 23.675936084010512], [86.393520048315, 23.675933014531157], [86.39351671335397, 23.676655587259077], [86.39273216377568, 23.676652513701967], [86.39272548482836, 23.678097658744317], [86.39351004303413, 23.67810073251146], [86.3935067076753, 23.67882330503591], [86.39429127032767, 23.67882637493478], [86.3942979322849, 23.67738122960829], [86.39508248644188, 23.677384295324384], [86.3950791598433, 23.67810686812628], [86.39586371844636, 23.678109929973967], [86.39586704073112, 23.677387357067456], [86.39665159515243, 23.67739041483751], [86.39665823069853, 23.6759452686121], [86.3974427766246, 23.67594832220046], [86.39744608988649, 23.675225748881694], [86.39901517350702, 23.675231843931886], [86.39900195417778, 23.678122137633093], [86.40057107283258, 23.678128217623666], [86.40057436923429, 23.677405644092367], [86.40214347978564, 23.677411707983058], [86.40214676742893, 23.67668913417677], [86.40057766550495, 23.676683070493247], [86.40058425765312, 23.675237923091586], [86.39979971551446, 23.67523488549805], [86.39980301570513, 23.674512311799297], [86.40215662957458, 23.67452141235104], [86.40215991669506, 23.67379883827352], [86.4037289846358, 23.6738048852389], [86.40373226299994, 23.67308231088695], [86.40216320368484, 23.6730762641282], [86.40216649054393, 23.672353689915077], [86.39589029302616, 23.672329344823044], [86.39588697166594, 23.673051918204255], [86.39431791497844, 23.67304579200114], [86.39431458486057, 23.673768365105204]], [[86.39587368490436, 23.675942211050987], [86.39587700679286, 23.67521963794102], [86.39666154827373, 23.675222695397665], [86.39665823069853, 23.6759452686121], [86.39587368490436, 23.675942211050987]], [[86.3974560288817, 23.673058028518536], [86.39745271601501, 23.673780602040736], [86.39588365017366, 23.67377449151765], [86.39588697166594, 23.673051918204255], [86.3974560288817, 23.673058028518536]], [[86.39823724913337, 23.673783651343747], [86.39823394044795, 23.674506224902334], [86.39744940301662, 23.67450317549512], [86.39745271601501, 23.673780602040736], [86.39823724913337, 23.673783651343747]], [[86.39824055768726, 23.673061077717357], [86.39980961569283, 23.673067164198365], [86.39980631576458, 23.673789738032728], [86.39823724913337, 23.673783651343747], [86.39824055768726, 23.673061077717357]]], [[[86.39743283604858, 23.67811604174986], [86.39743614970567, 23.67739346863454], [86.39665159515243, 23.67739041483751], [86.39664827718153, 23.67811298784849], [86.39743283604858, 23.67811604174986]]]]}, "properties": {"zone_id": 25, "centroid_latitude": 23.675118328981505, "centroid_longitude": 86.39769502486436, "area_km2": 0.384, "pixel_count": 60, "median_velocity_mm_year": -81.1983413696289, "mean_velocity_mm_year": -82.35954284667969, "worst_velocity_mm_year": -115.68482208251953, "median_net_displacement_mm": -389.3720209598541, "worst_net_displacement_mm": -539.3550395965576, "median_velocity_std_mm_year": 2.2203054428100586, "median_temporal_coherence": 1.0, "median_num_interferograms": 138.0, "confidence": "very_high"}}, {"type": "Feature", "geometry": {"type": "MultiPolygon", "coordinates": [[[[86.54585638574424, 23.638156721774934], [86.54585389291414, 23.63887931588996], [86.5466382366976, 23.638881610527676], [86.54664072522277, 23.638159016334154], [86.54585638574424, 23.638156721774934]]], [[[86.54820444454748, 23.639608782187235], [86.54820692456144, 23.638886187904667], [86.5466382366976, 23.638881610527676], [86.54663574807341, 23.639604204653647], [86.54820444454748, 23.639608782187235]]], [[[86.54270898802511, 23.641037878671433], [86.54427770072778, 23.641042496183676], [86.54427519888962, 23.64176508987109], [86.54584392060173, 23.64176969167457], [86.54584890695632, 23.64032450391737], [86.54663325935019, 23.640326798712078], [86.54663574807341, 23.639604204653647], [86.54585139998483, 23.63960190993744], [86.54585389291414, 23.63887931588996], [86.54506954922986, 23.638877017286102], [86.54506455466168, 23.640322205156245], [86.54349585037063, 23.640317595734764], [86.54350336790452, 23.63814981430126], [86.5427190288238, 23.638147503878038], [86.5427114983746, 23.640315285074415], [86.54114279468237, 23.640310651854502], [86.54114027572199, 23.64103324529303], [86.54192463182352, 23.6410355639655], [86.54192211706851, 23.64175815741578], [86.54270647757572, 23.641760472200897], [86.54270898802511, 23.641037878671433]]], [[[86.55133444971005, 23.641785673036075], [86.551339375787, 23.640340484185565], [86.55055502280153, 23.64033821318937], [86.55055748999828, 23.63961561874048], [86.54977314141628, 23.639613343855686], [86.54977561282, 23.638890749417065], [86.54899126864147, 23.63888847064394], [86.54898879293263, 23.6396110650046], [86.54820444454748, 23.639608782187235], [86.54820196443484, 23.64033137640225], [86.54741761184309, 23.64032908954037], [86.5474151273263, 23.641051683609614], [86.54898384121941, 23.641056253523278], [86.54898136521501, 23.64177884768129], [86.55133444971005, 23.641785673036075]], [[86.55055255550658, 23.64106080757071], [86.54976819831383, 23.641058532530277], [86.54977066991424, 23.640335938226748], [86.55055502280153, 23.64033821318937], [86.55055255550658, 23.64106080757071]]], [[[86.54741264271064, 23.641774277611304], [86.5474151273263, 23.641051683609614], [86.54663077052795, 23.641049392702957], [86.54662828160667, 23.641771986626278], [86.54741264271064, 23.641774277611304]]]]}, "properties": {"zone_id": 26, "centroid_latitude": 23.64032618715465, "centroid_longitude": 86.54642409870215, "area_km2": 0.192, "pixel_count": 30, "median_velocity_mm_year": -79.61875915527344, "mean_velocity_mm_year": -86.35074615478516, "worst_velocity_mm_year": -134.34945678710938, "median_net_displacement_mm": -381.3962936401367, "worst_net_displacement_mm": -595.5090522766113, "median_velocity_std_mm_year": 2.1917152404785156, "median_temporal_coherence": 1.0, "median_num_interferograms": 135.0, "confidence": "very_high"}}, {"type": "Feature", "geometry": {"type": "MultiPolygon", "coordinates": [[[[86.5152885071011, 23.632283410486245], [86.51607280815156, 23.632285859047883], [86.51607546361639, 23.631563267408158], [86.51450687022792, 23.631558366487745], [86.51449621330605, 23.634448731970437], [86.51528052716156, 23.634451184748666], [86.5152885071011, 23.632283410486245]]], [[[86.51293025891036, 23.633721223417176], [86.51214594967725, 23.633718758827545], [86.5121432723763, 23.634441349844284], [86.51292758591323, 23.634443814518242], [86.51293025891036, 23.633721223417176]]], [[[86.51449621330605, 23.634448731970437], [86.51292758591323, 23.634443814518242], [86.51292491280972, 23.63516640555174], [86.51449354881049, 23.63517132317218], [86.51449621330605, 23.634448731970437]]], [[[86.51213791745478, 23.635886531675048], [86.51292223959983, 23.635888996517657], [86.51292491280972, 23.63516640555174], [86.51214059496883, 23.63516394079345], [86.51213791745478, 23.635886531675048]]]]}, "properties": {"zone_id": 27, "centroid_latitude": 23.633685041845162, "centroid_longitude": 86.51419401656557, "area_km2": 0.057600000000000005, "pixel_count": 9, "median_velocity_mm_year": -68.71320343017578, "mean_velocity_mm_year": -70.02531433105469, "worst_velocity_mm_year": -82.72972869873047, "median_net_displacement_mm": -290.1551425457001, "worst_net_displacement_mm": -347.6563096046448, "median_velocity_std_mm_year": 1.6160067319869995, "median_temporal_coherence": 1.0, "median_num_interferograms": 137.0, "confidence": "high"}}]}